{"type": "FeatureCollection", "features": [ {"type": "Feature", "properties": {"norad_id": 34784, "name": "COSMOS 2251 DEB", "group": "cosmos-2251-debris", "lat": -30.987678436450132, "lon": 167.28069295559794, "alt_km": 680.6816472427035, "timestamp": "2025-12-05T22:40:48.945298+00:00", "meta": {"OBJECT_NAME": "COSMOS 2251 DEB", "OBJECT_ID": "1993-036AAM", "EPOCH": "2025-12-05T06:55:19.113024", "MEAN_MOTION": 14.60726382, "ECCENTRICITY": 0.00496845, "INCLINATION": 74.0071, "RA_OF_ASC_NODE": 338.6185, "ARG_OF_PERICENTER": 150.1681, "MEAN_ANOMALY": 210.2334, "EPHEMERIS_TYPE": 0, "CLASSIFICATION_TYPE": "U", "NORAD_CAT_ID": 34784, "ELEMENT_SET_NO": 999, "REV_AT_EPOCH": 88426, "BSTAR": 0.00090675819, "MEAN_MOTION_DOT": 4.471e-05, "MEAN_MOTION_DDOT": 0}, "tle": {"line1": "1 34784U 93036AAM 25339.28841566  .00004471  00000+0  90676-3 0  9995", "line2": "2 34784  74.0071 338.6185 0049684 150.1681 210.2334 14.60726382884266"}}, "geometry": {"type": "Point", "coordinates": [167.28069295559794, -30.987678436450132]}}, {"type": "Feature", "properties": {"norad_id": 34790, "name": "COSMOS 2251 DEB", "group": "cosmos-2251-debris", "lat": 36.93854259573732, "lon": 63.52897553207941, "alt_km": 879.1922957408524, "timestamp": "2025-12-05T22:40:48.945308+00:00", "meta": {"OBJECT_NAME": "COSMOS 2251 DEB", "OBJECT_ID": "1993-036AAT", "EPOCH": "2025-12-05T05:53:13.029216", "MEAN_MOTION": 14.2459098, "ECCENTRICITY": 0.01007233, "INCLINATION": 74.0562, "RA_OF_ASC_NODE": 257.1998, "ARG_OF_PERICENTER": 320.3203, "MEAN_ANOMALY": 193.8422, "EPHEMERIS_TYPE": 0, "CLASSIFICATION_TYPE": "U", "NORAD_CAT_ID": 34790, "ELEMENT_SET_NO": 999, "REV_AT_EPOCH": 86466, "BSTAR": 0.0017398568, "MEAN_MOTION_DOT": 4.235e-05, "MEAN_MOTION_DDOT": 0}, "tle": {"line1": "1 34790U 93036AAT 25339.24528969  .00004235  00000+0  17399-2 0  9995", "line2": "2 34790  74.0562 257.1998 0100723 320.3203 193.8422 14.24590980864667"}}, "geometry": {"type": "Point", "coordinates": [63.52897553207941, 36.93854259573732]}}, {"type": "Feature", "properties": {"norad_id": 34792, "name": "COSMOS 2251 DEB", "group": "cosmos-2251-debris", "lat": 42.512702014378924, "lon": -162.16271863007788, "alt_km": 708.2648969863276, "timestamp": "2025-12-05T22:40:48.945319+00:00", "meta": {"OBJECT_NAME": "COSMOS 2251 DEB", "OBJECT_ID": "1993-036AAV", "EPOCH": "2025-12-04T17:20:04.670592", "MEAN_MOTION": 14.5585623, "ECCENTRICITY": 0.0012597, "INCLINATION": 74.0173, "RA_OF_ASC_NODE": 184.9238, "ARG_OF_PERICENTER": 278.5537, "MEAN_ANOMALY": 200.1967, "EPHEMERIS_TYPE": 0, "CLASSIFICATION_TYPE": "U", "NORAD_CAT_ID": 34792, "ELEMENT_SET_NO": 999, "REV_AT_EPOCH": 87533, "BSTAR": 0.0019867, "MEAN_MOTION_DOT": 8.707e-05, "MEAN_MOTION_DDOT": 0}, "tle": {"line1": "1 34792U 93036AAV 25338.72227628  .00008707  00000+0  19867-2 0  9997", "line2": "2 34792  74.0173 184.9238 0012597 278.5537 200.1967 14.55856230875335"}}, "geometry": {"type": "Point", "coordinates": [-162.16271863007788, 42.512702014378924]}}, {"type": "Feature", "properties": {"norad_id": 34793, "name": "COSMOS 2251 DEB", "group": "cosmos-2251-debris", "lat": -60.90120064133859, "lon": 113.94690665944786, "alt_km": 805.336192159144, "timestamp": "2025-12-05T22:40:48.945329+00:00", "meta": {"OBJECT_NAME": "COSMOS 2251 DEB", "OBJECT_ID": "1993-036AAW", "EPOCH": "2025-12-05T05:36:19.731744", "MEAN_MOTION": 14.38624486, "ECCENTRICITY": 0.00500177, "INCLINATION": 74.0028, "RA_OF_ASC_NODE": 264.2336, "ARG_OF_PERICENTER": 60.3524, "MEAN_ANOMALY": 101.8803, "EPHEMERIS_TYPE": 0, "CLASSIFICATION_TYPE": "U", "NORAD_CAT_ID": 34793, "ELEMENT_SET_NO": 999, "REV_AT_EPOCH": 87222, "BSTAR": 0.00049618867, "MEAN_MOTION_DOT": 1.516e-05, "MEAN_MOTION_DDOT": 0}, "tle": {"line1": "1 34793U 93036AAW 25339.23356171  .00001516  00000+0  49619-3 0  9991", "line2": "2 34793  74.0028 264.2336 0050017  60.3524 101.8803 14.38624486872226"}}, "geometry": {"type": "Point", "coordinates": [113.94690665944786, -60.90120064133859]}}, {"type": "Feature", "properties": {"norad_id": 34796, "name": "COSMOS 2251 DEB", "group": "cosmos-2251-debris", "lat": 73.16099903008356, "lon": -22.02151257287449, "alt_km": 760.7308312775431, "timestamp": "2025-12-05T22:40:48.945339+00:00", "meta": {"OBJECT_NAME": "COSMOS 2251 DEB", "OBJECT_ID": "1993-036AAZ", "EPOCH": "2025-12-04T16:32:19.644000", "MEAN_MOTION": 14.48622795, "ECCENTRICITY": 0.0100109, "INCLINATION": 74.0308, "RA_OF_ASC_NODE": 231.4366, "ARG_OF_PERICENTER": 335.2768, "MEAN_ANOMALY": 52.2124, "EPHEMERIS_TYPE": 0, "CLASSIFICATION_TYPE": "U", "NORAD_CAT_ID": 34796, "ELEMENT_SET_NO": 999, "REV_AT_EPOCH": 87911, "BSTAR": 0.0015827, "MEAN_MOTION_DOT": 6.321e-05, "MEAN_MOTION_DDOT": 0}, "tle": {"line1": "1 34796U 93036AAZ 25338.68911625  .00006321  00000+0  15827-2 0  9995", "line2": "2 34796  74.0308 231.4366 0100109 335.2768  52.2124 14.48622795879113"}}, "geometry": {"type": "Point", "coordinates": [-22.02151257287449, 73.16099903008356]}}, {"type": "Feature", "properties": {"norad_id": 34797, "name": "COSMOS 2251 DEB", "group": "cosmos-2251-debris", "lat": 2.7242430227398966, "lon": 113.42620023363392, "alt_km": 789.1919075756496, "timestamp": "2025-12-05T22:40:48.945349+00:00", "meta": {"OBJECT_NAME": "COSMOS 2251 DEB", "OBJECT_ID": "1993-036ABA", "EPOCH": "2025-12-02T16:26:28.609440", "MEAN_MOTION": 14.42535201, "ECCENTRICITY": 0.00725247, "INCLINATION": 73.9763, "RA_OF_ASC_NODE": 118.7115, "ARG_OF_PERICENTER": 233.7261, "MEAN_ANOMALY": 125.7182, "EPHEMERIS_TYPE": 0, "CLASSIFICATION_TYPE": "U", "NORAD_CAT_ID": 34797, "ELEMENT_SET_NO": 999, "REV_AT_EPOCH": 87270, "BSTAR": 0.0028458232, "MEAN_MOTION_DOT": 9.728e-05, "MEAN_MOTION_DDOT": 0}, "tle": {"line1": "1 34797U 93036ABA 25336.68505335  .00009728  00000+0  28458-2 0  9999", "line2": "2 34797  73.9763 118.7115 0072524 233.7261 125.7182 14.42535201872702"}}, "geometry": {"type": "Point", "coordinates": [113.42620023363392, 2.7242430227398966]}}, {"type": "Feature", "properties": {"norad_id": 34814, "name": "COSMOS 2251 DEB", "group": "cosmos-2251-debris", "lat": 48.91107386215849, "lon": 138.69423863012148, "alt_km": 771.2352713229329, "timestamp": "2025-12-05T22:40:48.945359+00:00", "meta": {"OBJECT_NAME": "COSMOS 2251 DEB", "OBJECT_ID": "1993-036ABD", "EPOCH": "2025-12-02T11:13:46.501248", "MEAN_MOTION": 14.36815971, "ECCENTRICITY": 0.00568423, "INCLINATION": 73.8957, "RA_OF_ASC_NODE": 344.4866, "ARG_OF_PERICENTER": 235.7348, "MEAN_ANOMALY": 274.6986, "EPHEMERIS_TYPE": 0, "CLASSIFICATION_TYPE": "U", "NORAD_CAT_ID": 34814, "ELEMENT_SET_NO": 999, "REV_AT_EPOCH": 87185, "BSTAR": 0.0010643945, "MEAN_MOTION_DOT": 3.176e-05, "MEAN_MOTION_DDOT": 0}, "tle": {"line1": "1 34814U 93036ABD 25336.46789932  .00003176  00000+0  10644-2 0  9991", "line2": "2 34814  73.8957 344.4866 0056842 235.7348 274.6986 14.36815971871859"}}, "geometry": {"type": "Point", "coordinates": [138.69423863012148, 48.91107386215849]}}, {"type": "Feature", "properties": {"norad_id": 34815, "name": "COSMOS 2251 DEB", "group": "cosmos-2251-debris", "lat": -6.0554425014761355, "lon": -106.59848128587743, "alt_km": 601.9828096671918, "timestamp": "2025-12-05T22:40:48.945370+00:00", "meta": {"OBJECT_NAME": "COSMOS 2251 DEB", "OBJECT_ID": "1993-036ABE", "EPOCH": "2025-12-05T04:50:27.332736", "MEAN_MOTION": 14.78146194, "ECCENTRICITY": 0.00589863, "INCLINATION": 74.0462, "RA_OF_ASC_NODE": 256.5989, "ARG_OF_PERICENTER": 327.3715, "MEAN_ANOMALY": 32.382, "EPHEMERIS_TYPE": 0, "CLASSIFICATION_TYPE": "U", "NORAD_CAT_ID": 34815, "ELEMENT_SET_NO": 999, "REV_AT_EPOCH": 88516, "BSTAR": 0.0020835561, "MEAN_MOTION_DOT": 0.00015533, "MEAN_MOTION_DDOT": 0}, "tle": {"line1": "1 34815U 93036ABE 25339.20170524  .00015533  00000+0  20836-2 0  9992", "line2": "2 34815  74.0462 256.5989 0058986 327.3715  32.3820 14.78146194885165"}}, "geometry": {"type": "Point", "coordinates": [-106.59848128587743, -6.0554425014761355]}}, {"type": "Feature", "properties": {"norad_id": 34816, "name": "COSMOS 2251 DEB", "group": "cosmos-2251-debris", "lat": -1.2936691248939143, "lon": 153.83501790125996, "alt_km": 1249.0032597644276, "timestamp": "2025-12-05T22:40:48.945380+00:00", "meta": {"OBJECT_NAME": "COSMOS 2251 DEB", "OBJECT_ID": "1993-036ABF", "EPOCH": "2025-12-04T06:55:01.795872", "MEAN_MOTION": 13.5828868, "ECCENTRICITY": 0.037371, "INCLINATION": 73.8862, "RA_OF_ASC_NODE": 156.9114, "ARG_OF_PERICENTER": 222.8428, "MEAN_ANOMALY": 314.5615, "EPHEMERIS_TYPE": 0, "CLASSIFICATION_TYPE": "U", "NORAD_CAT_ID": 34816, "ELEMENT_SET_NO": 999, "REV_AT_EPOCH": 82668, "BSTAR": 0.0017556, "MEAN_MOTION_DOT": 1.988e-05, "MEAN_MOTION_DDOT": 0}, "tle": {"line1": "1 34816U 93036ABF 25338.28821523  .00001988  00000+0  17556-2 0  9996", "line2": "2 34816  73.8862 156.9114 0373710 222.8428 314.5615 13.58288680826688"}}, "geometry": {"type": "Point", "coordinates": [153.83501790125996, -1.2936691248939143]}}, {"type": "Feature", "properties": {"norad_id": 34818, "name": "COSMOS 2251 DEB", "group": "cosmos-2251-debris", "lat": -17.925690320598854, "lon": 134.74872771408798, "alt_km": 789.9801979662934, "timestamp": "2025-12-05T22:40:48.945391+00:00", "meta": {"OBJECT_NAME": "COSMOS 2251 DEB", "OBJECT_ID": "1993-036ABH", "EPOCH": "2025-12-02T23:50:56.245056", "MEAN_MOTION": 14.36946659, "ECCENTRICITY": 0.0023728, "INCLINATION": 74.0353, "RA_OF_ASC_NODE": 314.8598, "ARG_OF_PERICENTER": 33.1199, "MEAN_ANOMALY": 24.3839, "EPHEMERIS_TYPE": 0, "CLASSIFICATION_TYPE": "U", "NORAD_CAT_ID": 34818, "ELEMENT_SET_NO": 999, "REV_AT_EPOCH": 87230, "BSTAR": 0.00041955, "MEAN_MOTION_DOT": 1.22e-05, "MEAN_MOTION_DDOT": 0}, "tle": {"line1": "1 34818U 93036ABH 25336.99370654  .00001220  00000+0  41955-3 0  9998", "line2": "2 34818  74.0353 314.8598 0023728  33.1199  24.3839 14.36946659872306"}}, "geometry": {"type": "Point", "coordinates": [134.74872771408798, -17.925690320598854]}}]}